<?xml version="1.0" encoding="UTF-8"?>
<ndm xmlns:xsi="http://www.w3.org/2001/XMLSchema-instance" xsi:noNamespaceSchemaLocation="https://sanaregistry.org/r/ndmxml_unqualified/ndmxml-2.0.0-master-2.0.xsd">
<omm id="CCSDS_OMM_VERS" version="2.0">
<header><CREATION_DATE/><ORIGINATOR/></header><body><segment><metadata><OBJECT_NAME>ONEWEB-0173</OBJECT_NAME><OBJECT_ID>2021-025AD</OBJECT_ID><CENTER_NAME>EARTH</CENTER_NAME><REF_FRAME>TEME</REF_FRAME><TIME_SYSTEM>UTC</TIME_SYSTEM><MEAN_ELEMENT_THEORY>SGP4</MEAN_ELEMENT_THEORY></metadata><data><meanElements><EPOCH>2025-07-14T12:20:35.023200</EPOCH><MEAN_MOTION>13.13471278</MEAN_MOTION><ECCENTRICITY>.0001924</ECCENTRICITY><INCLINATION>87.8955</INCLINATION><RA_OF_ASC_NODE>27.3033</RA_OF_ASC_NODE><ARG_OF_PERICENTER>71.6137</ARG_OF_PERICENTER><MEAN_ANOMALY>288.5201</MEAN_ANOMALY></meanElements><tleParameters><EPHEMERIS_TYPE>0</EPHEMERIS_TYPE><CLASSIFICATION_TYPE>U</CLASSIFICATION_TYPE><NORAD_CAT_ID>48069</NORAD_CAT_ID><ELEMENT_SET_NO>999</ELEMENT_SET_NO><REV_AT_EPOCH>20947</REV_AT_EPOCH><BSTAR>.68034E-3</BSTAR><MEAN_MOTION_DOT>.261E-5</MEAN_MOTION_DOT><MEAN_MOTION_DDOT>0</MEAN_MOTION_DDOT></tleParameters></data></segment></body></omm>
<omm id="CCSDS_OMM_VERS" version="2.0">
<header><CREATION_DATE/><ORIGINATOR/></header><body><segment><metadata><OBJECT_NAME>ONEWEB-0171</OBJECT_NAME><OBJECT_ID>2021-025AE</OBJECT_ID><CENTER_NAME>EARTH</CENTER_NAME><REF_FRAME>TEME</REF_FRAME><TIME_SYSTEM>UTC</TIME_SYSTEM><MEAN_ELEMENT_THEORY>SGP4</MEAN_ELEMENT_THEORY></metadata><data><meanElements><EPOCH>2025-07-14T22:22:41.236608</EPOCH><MEAN_MOTION>13.13470247</MEAN_MOTION><ECCENTRICITY>.0001901</ECCENTRICITY><INCLINATION>87.8957</INCLINATION><RA_OF_ASC_NODE>27.2577</RA_OF_ASC_NODE><ARG_OF_PERICENTER>86.9213</ARG_OF_PERICENTER><MEAN_ANOMALY>273.2133</MEAN_ANOMALY></meanElements><tleParameters><EPHEMERIS_TYPE>0</EPHEMERIS_TYPE><CLASSIFICATION_TYPE>U</CLASSIFICATION_TYPE><NORAD_CAT_ID>48070</NORAD_CAT_ID><ELEMENT_SET_NO>999</ELEMENT_SET_NO><REV_AT_EPOCH>20934</REV_AT_EPOCH><BSTAR>-.57473E-3</BSTAR><MEAN_MOTION_DOT>-.197E-5</MEAN_MOTION_DOT><MEAN_MOTION_DDOT>0</MEAN_MOTION_DDOT></tleParameters></data></segment></body></omm>
<omm id="CCSDS_OMM_VERS" version="2.0">
<header><CREATION_DATE/><ORIGINATOR/></header><body><segment><metadata><OBJECT_NAME>ONEWEB-0172</OBJECT_NAME><OBJECT_ID>2021-025AF</OBJECT_ID><CENTER_NAME>EARTH</CENTER_NAME><REF_FRAME>TEME</REF_FRAME><TIME_SYSTEM>UTC</TIME_SYSTEM><MEAN_ELEMENT_THEORY>SGP4</MEAN_ELEMENT_THEORY></metadata><data><meanElements><EPOCH>2025-07-14T18:14:02.792256</EPOCH><MEAN_MOTION>13.13469076</MEAN_MOTION><ECCENTRICITY>.0001922</ECCENTRICITY><INCLINATION>87.8957</INCLINATION><RA_OF_ASC_NODE>27.2586</RA_OF_ASC_NODE><ARG_OF_PERICENTER>84.0315</ARG_OF_PERICENTER><MEAN_ANOMALY>276.1033</MEAN_ANOMALY></meanElements><tleParameters><EPHEMERIS_TYPE>0</EPHEMERIS_TYPE><CLASSIFICATION_TYPE>U</CLASSIFICATION_TYPE><NORAD_CAT_ID>48071</NORAD_CAT_ID><ELEMENT_SET_NO>999</ELEMENT_SET_NO><REV_AT_EPOCH>21021</REV_AT_EPOCH><BSTAR>.80052E-3</BSTAR><MEAN_MOTION_DOT>.305E-5</MEAN_MOTION_DOT><MEAN_MOTION_DDOT>0</MEAN_MOTION_DDOT></tleParameters></data></segment></body></omm>
<omm id="CCSDS_OMM_VERS" version="2.0">
<header><CREATION_DATE/><ORIGINATOR/></header><body><segment><metadata><OBJECT_NAME>ONEWEB-0174</OBJECT_NAME><OBJECT_ID>2021-025AG</OBJECT_ID><CENTER_NAME>EARTH</CENTER_NAME><REF_FRAME>TEME</REF_FRAME><TIME_SYSTEM>UTC</TIME_SYSTEM><MEAN_ELEMENT_THEORY>SGP4</MEAN_ELEMENT_THEORY></metadata><data><meanElements><EPOCH>2025-07-14T14:07:50.700000</EPOCH><MEAN_MOTION>13.13471258</MEAN_MOTION><ECCENTRICITY>.0001691</ECCENTRICITY><INCLINATION>87.8956</INCLINATION><RA_OF_ASC_NODE>27.3062</RA_OF_ASC_NODE><ARG_OF_PERICENTER>86.6813</ARG_OF_PERICENTER><MEAN_ANOMALY>273.4510</MEAN_ANOMALY></meanElements><tleParameters><EPHEMERIS_TYPE>0</EPHEMERIS_TYPE><CLASSIFICATION_TYPE>U</CLASSIFICATION_TYPE><NORAD_CAT_ID>48072</NORAD_CAT_ID><ELEMENT_SET_NO>999</ELEMENT_SET_NO><REV_AT_EPOCH>20951</REV_AT_EPOCH><BSTAR>.47306E-3</BSTAR><MEAN_MOTION_DOT>.186E-5</MEAN_MOTION_DOT><MEAN_MOTION_DDOT>0</MEAN_MOTION_DDOT></tleParameters></data></segment></body></omm>
<omm id="CCSDS_OMM_VERS" version="2.0">
<header><CREATION_DATE/><ORIGINATOR/></header><body><segment><metadata><OBJECT_NAME>ONEWEB-0175</OBJECT_NAME><OBJECT_ID>2021-025AH</OBJECT_ID><CENTER_NAME>EARTH</CENTER_NAME><REF_FRAME>TEME</REF_FRAME><TIME_SYSTEM>UTC</TIME_SYSTEM><MEAN_ELEMENT_THEORY>SGP4</MEAN_ELEMENT_THEORY></metadata><data><meanElements><EPOCH>2025-07-14T18:31:06.256416</EPOCH><MEAN_MOTION>13.13470881</MEAN_MOTION><ECCENTRICITY>.0002158</ECCENTRICITY><INCLINATION>87.8952</INCLINATION><RA_OF_ASC_NODE>27.2357</RA_OF_ASC_NODE><ARG_OF_PERICENTER>86.4334</ARG_OF_PERICENTER><MEAN_ANOMALY>273.7042</MEAN_ANOMALY></meanElements><tleParameters><EPHEMERIS_TYPE>0</EPHEMERIS_TYPE><CLASSIFICATION_TYPE>U</CLASSIFICATION_TYPE><NORAD_CAT_ID>48073</NORAD_CAT_ID><ELEMENT_SET_NO>999</ELEMENT_SET_NO><REV_AT_EPOCH>20919</REV_AT_EPOCH><BSTAR>.1262E-3</BSTAR><MEAN_MOTION_DOT>.59E-6</MEAN_MOTION_DOT><MEAN_MOTION_DDOT>0</MEAN_MOTION_DDOT></tleParameters></data></segment></body></omm>
<omm id="CCSDS_OMM_VERS" version="2.0">
<header><CREATION_DATE/><ORIGINATOR/></header><body><segment><metadata><OBJECT_NAME>ONEWEB-0177</OBJECT_NAME><OBJECT_ID>2021-025AJ</OBJECT_ID><CENTER_NAME>EARTH</CENTER_NAME><REF_FRAME>TEME</REF_FRAME><TIME_SYSTEM>UTC</TIME_SYSTEM><MEAN_ELEMENT_THEORY>SGP4</MEAN_ELEMENT_THEORY></metadata><data><meanElements><EPOCH>2025-07-14T22:27:32.766624</EPOCH><MEAN_MOTION>13.13468171</MEAN_MOTION><ECCENTRICITY>.0001741</ECCENTRICITY><INCLINATION>87.8957</INCLINATION><RA_OF_ASC_NODE>27.2168</RA_OF_ASC_NODE><ARG_OF_PERICENTER>81.6704</ARG_OF_PERICENTER><MEAN_ANOMALY>278.4623</MEAN_ANOMALY></meanElements><tleParameters><EPHEMERIS_TYPE>0</EPHEMERIS_TYPE><CLASSIFICATION_TYPE>U</CLASSIFICATION_TYPE><NORAD_CAT_ID>48074</NORAD_CAT_ID><ELEMENT_SET_NO>999</ELEMENT_SET_NO><REV_AT_EPOCH>20940</REV_AT_EPOCH><BSTAR>-.7587E-3</BSTAR><MEAN_MOTION_DOT>-.264E-5</MEAN_MOTION_DOT><MEAN_MOTION_DDOT>0</MEAN_MOTION_DDOT></tleParameters></data></segment></body></omm>
<omm id="CCSDS_OMM_VERS" version="2.0">
<header><CREATION_DATE/><ORIGINATOR/></header><body><segment><metadata><OBJECT_NAME>ONEWEB-0178</OBJECT_NAME><OBJECT_ID>2021-025AK</OBJECT_ID><CENTER_NAME>EARTH</CENTER_NAME><REF_FRAME>TEME</REF_FRAME><TIME_SYSTEM>UTC</TIME_SYSTEM><MEAN_ELEMENT_THEORY>SGP4</MEAN_ELEMENT_THEORY></metadata><data><meanElements><EPOCH>2025-07-14T13:46:06.456576</EPOCH><MEAN_MOTION>13.13470970</MEAN_MOTION><ECCENTRICITY>.0002021</ECCENTRICITY><INCLINATION>87.8954</INCLINATION><RA_OF_ASC_NODE>27.3336</RA_OF_ASC_NODE><ARG_OF_PERICENTER>81.6986</ARG_OF_PERICENTER><MEAN_ANOMALY>278.4373</MEAN_ANOMALY></meanElements><tleParameters><EPHEMERIS_TYPE>0</EPHEMERIS_TYPE><CLASSIFICATION_TYPE>U</CLASSIFICATION_TYPE><NORAD_CAT_ID>48075</NORAD_CAT_ID><ELEMENT_SET_NO>999</ELEMENT_SET_NO><REV_AT_EPOCH>20940</REV_AT_EPOCH><BSTAR>-.45565E-3</BSTAR><MEAN_MOTION_DOT>-.154E-5</MEAN_MOTION_DOT><MEAN_MOTION_DDOT>0</MEAN_MOTION_DDOT></tleParameters></data></segment></body></omm>
<omm id="CCSDS_OMM_VERS" version="2.0">
<header><CREATION_DATE/><ORIGINATOR/></header><body><segment><metadata><OBJECT_NAME>ONEWEB-0108</OBJECT_NAME><OBJECT_ID>2021-025AL</OBJECT_ID><CENTER_NAME>EARTH</CENTER_NAME><REF_FRAME>TEME</REF_FRAME><TIME_SYSTEM>UTC</TIME_SYSTEM><MEAN_ELEMENT_THEORY>SGP4</MEAN_ELEMENT_THEORY></metadata><data><meanElements><EPOCH>2025-07-14T18:16:28.700256</EPOCH><MEAN_MOTION>13.13470535</MEAN_MOTION><ECCENTRICITY>.0001704</ECCENTRICITY><INCLINATION>87.8953</INCLINATION><RA_OF_ASC_NODE>27.2466</RA_OF_ASC_NODE><ARG_OF_PERICENTER>95.7322</ARG_OF_PERICENTER><MEAN_ANOMALY>264.4001</MEAN_ANOMALY></meanElements><tleParameters><EPHEMERIS_TYPE>0</EPHEMERIS_TYPE><CLASSIFICATION_TYPE>U</CLASSIFICATION_TYPE><NORAD_CAT_ID>48076</NORAD_CAT_ID><ELEMENT_SET_NO>999</ELEMENT_SET_NO><REV_AT_EPOCH>20935</REV_AT_EPOCH><BSTAR>.62417E-3</BSTAR><MEAN_MOTION_DOT>.241E-5</MEAN_MOTION_DOT><MEAN_MOTION_DDOT>0</MEAN_MOTION_DDOT></tleParameters></data></segment></body></omm>
<omm id="CCSDS_OMM_VERS" version="2.0">
<header><CREATION_DATE/><ORIGINATOR/></header><body><segment><metadata><OBJECT_NAME>ONEWEB-0169</OBJECT_NAME><OBJECT_ID>2021-025AM</OBJECT_ID><CENTER_NAME>EARTH</CENTER_NAME><REF_FRAME>TEME</REF_FRAME><TIME_SYSTEM>UTC</TIME_SYSTEM><MEAN_ELEMENT_THEORY>SGP4</MEAN_ELEMENT_THEORY></metadata><data><meanElements><EPOCH>2025-07-14T22:42:10.915488</EPOCH><MEAN_MOTION>13.13469143</MEAN_MOTION><ECCENTRICITY>.0001717</ECCENTRICITY><INCLINATION>87.8956</INCLINATION><RA_OF_ASC_NODE>27.2304</RA_OF_ASC_NODE><ARG_OF_PERICENTER>95.6114</ARG_OF_PERICENTER><MEAN_ANOMALY>264.5210</MEAN_ANOMALY></meanElements><tleParameters><EPHEMERIS_TYPE>0</EPHEMERIS_TYPE><CLASSIFICATION_TYPE>U</CLASSIFICATION_TYPE><NORAD_CAT_ID>48077</NORAD_CAT_ID><ELEMENT_SET_NO>999</ELEMENT_SET_NO><REV_AT_EPOCH>20803</REV_AT_EPOCH><BSTAR>-.73705E-3</BSTAR><MEAN_MOTION_DOT>-.256E-5</MEAN_MOTION_DOT><MEAN_MOTION_DDOT>0</MEAN_MOTION_DDOT></tleParameters></data></segment></body></omm>

</ndm>
